{
  "type": "FeatureCollection",
  "features": [
    {
      "type": "Feature",
      "properties": {
        "norad_id": 59626,
        "name": "LEGION 2",
        "group": "resource",
        "lat": -0.6714665209124457,
        "lon": -120.72472511594155,
        "alt_km": 521.8750369624586,
        "timestamp": "2025-12-10T14:53:36.780448+00:00",
        "meta_object_name": "LEGION 2",
        "meta_object_id": "2024-081B",
        "meta_epoch": "2025-12-10T06:10:52.039200",
        "meta_mean_motion": 15.16451943,
        "meta_eccentricity": 0.0005791,
        "meta_inclination": 97.5213,
        "meta_ra_of_asc_node": 59.0041,
        "meta_arg_of_pericenter": 304.3633,
        "meta_mean_anomaly": 55.7051,
        "meta_ephemeris_type": 0,
        "meta_classification_type": "U",
        "meta_norad_cat_id": 59626,
        "meta_element_set_no": 999,
        "meta_rev_at_epoch": 8890,
        "meta_bstar": 0.00036565913,
        "meta_mean_motion_dot": 7.05e-05,
        "meta_mean_motion_ddot": 0,
        "tle_line1": "1 59626U 24081B   25344.25754675  .00007050  00000+0  36566-3 0  9992",
        "tle_line2": "2 59626  97.5213  59.0041 0005791 304.3633  55.7051 15.16451943 88907"
      },
      "geometry": {
        "type": "Point",
        "coordinates": [
          -120.72472511594155,
          -0.6714665209124457
        ]
      }
    },
    {
      "type": "Feature",
      "properties": {
        "norad_id": 60182,
        "name": "ALOS-4 (DAICHI-4)",
        "group": "resource",
        "lat": 59.395301824937775,
        "lon": -86.88568155809621,
        "alt_km": 624.2815872299143,
        "timestamp": "2025-12-10T14:53:36.780458+00:00",
        "meta_object_name": "ALOS-4 (DAICHI-4)",
        "meta_object_id": "2024-123A",
        "meta_epoch": "2025-12-10T06:14:20.406624",
        "meta_mean_motion": 14.79473683,
        "meta_eccentricity": 0.00014446,
        "meta_inclination": 97.9225,
        "meta_ra_of_asc_node": 79.1423,
        "meta_arg_of_pericenter": 101.4766,
        "meta_mean_anomaly": 258.6608,
        "meta_ephemeris_type": 0,
        "meta_classification_type": "U",
        "meta_norad_cat_id": 60182,
        "meta_element_set_no": 999,
        "meta_rev_at_epoch": 7794,
        "meta_bstar": 0.00035518551,
        "meta_mean_motion_dot": 2.602e-05,
        "meta_mean_motion_ddot": 0,
        "tle_line1": "1 60182U 24123A   25344.25995841  .00002602  00000+0  35519-3 0  9995",
        "tle_line2": "2 60182  97.9225  79.1423 0001444 101.4766 258.6608 14.79473683 77941"
      },
      "geometry": {
        "type": "Point",
        "coordinates": [
          -86.88568155809621,
          59.395301824937775
        ]
      }
    },
    {
      "type": "Feature",
      "properties": {
        "norad_id": 60452,
        "name": "LEGION 3",
        "group": "resource",
        "lat": -24.11466607176739,
        "lon": 168.1017960556617,
        "alt_km": 512.3882164278157,
        "timestamp": "2025-12-10T14:53:36.780468+00:00",
        "meta_object_name": "LEGION 3",
        "meta_object_id": "2024-146A",
        "meta_epoch": "2025-12-10T06:02:23.090496",
        "meta_mean_motion": 15.15719839,
        "meta_eccentricity": 0.00146149,
        "meta_inclination": 45.0023,
        "meta_ra_of_asc_node": 323.471,
        "meta_arg_of_pericenter": 185.248,
        "meta_mean_anomaly": 174.8247,
        "meta_ephemeris_type": 0,
        "meta_classification_type": "U",
        "meta_norad_cat_id": 60452,
        "meta_element_set_no": 999,
        "meta_rev_at_epoch": 7335,
        "meta_bstar": 0.00041777248,
        "meta_mean_motion_dot": 7.859e-05,
        "meta_mean_motion_ddot": 0,
        "tle_line1": "1 60452U 24146A   25344.25165614  .00007859  00000+0  41777-3 0  9999",
        "tle_line2": "2 60452  45.0023 323.4710 0014614 185.2480 174.8247 15.15719839 73357"
      },
      "geometry": {
        "type": "Point",
        "coordinates": [
          168.1017960556617,
          -24.11466607176739
        ]
      }
    },
    {
      "type": "Feature",
      "properties": {
        "norad_id": 60453,
        "name": "LEGION 4",
        "group": "resource",
        "lat": -21.664755627770123,
        "lon": -103.37402040578321,
        "alt_km": 520.7836927386643,
        "timestamp": "2025-12-10T14:53:36.780477+00:00",
        "meta_object_name": "LEGION 4",
        "meta_object_id": "2024-146B",
        "meta_epoch": "2025-12-10T06:03:20.930112",
        "meta_mean_motion": 15.15782568,
        "meta_eccentricity": 0.00097,
        "meta_inclination": 45.0385,
        "meta_ra_of_asc_node": 55.2104,
        "meta_arg_of_pericenter": 298.2273,
        "meta_mean_anomaly": 61.7626,
        "meta_ephemeris_type": 0,
        "meta_classification_type": "U",
        "meta_norad_cat_id": 60453,
        "meta_element_set_no": 999,
        "meta_rev_at_epoch": 7220,
        "meta_bstar": 0.00041073898,
        "meta_mean_motion_dot": 7.725e-05,
        "meta_mean_motion_ddot": 0,
        "tle_line1": "1 60453U 24146B   25344.25232558  .00007725  00000+0  41074-3 0  9994",
        "tle_line2": "2 60453  45.0385  55.2104 0009700 298.2273  61.7626 15.15782568 72208"
      },
      "geometry": {
        "type": "Point",
        "coordinates": [
          -103.37402040578321,
          -21.664755627770123
        ]
      }
    },
    {
      "type": "Feature",
      "properties": {
        "norad_id": 60989,
        "name": "SENTINEL-2C",
        "group": "resource",
        "lat": -71.9621979251435,
        "lon": -150.44590835142674,
        "alt_km": 797.0733843193575,
        "timestamp": "2025-12-10T14:53:36.780488+00:00",
        "meta_object_name": "SENTINEL-2C",
        "meta_object_id": "2024-157A",
        "meta_epoch": "2025-12-10T05:19:05.739744",
        "meta_mean_motion": 14.30816116,
        "meta_eccentricity": 0.00012005,
        "meta_inclination": 98.5684,
        "meta_ra_of_asc_node": 56.7404,
        "meta_arg_of_pericenter": 98.0266,
        "meta_mean_anomaly": 262.1053,
        "meta_ephemeris_type": 0,
        "meta_classification_type": "U",
        "meta_norad_cat_id": 60989,
        "meta_element_set_no": 999,
        "meta_rev_at_epoch": 6596,
        "meta_bstar": 0.0001157069,
        "meta_mean_motion_dot": 2.6e-06,
        "meta_mean_motion_ddot": 0,
        "tle_line1": "1 60989U 24157A   25344.22159421  .00000260  00000+0  11571-3 0  9990",
        "tle_line2": "2 60989  98.5684  56.7404 0001200  98.0266 262.1053 14.30816116 65960"
      },
      "geometry": {
        "type": "Point",
        "coordinates": [
          -150.44590835142674,
          -71.9621979251435
        ]
      }
    },
    {
      "type": "Feature",
      "properties": {
        "norad_id": 61735,
        "name": "IONOSFERA-M 1",
        "group": "resource",
        "lat": -41.59822050434262,
        "lon": 26.634345682812537,
        "alt_km": 823.4651633416725,
        "timestamp": "2025-12-10T14:53:36.780497+00:00",
        "meta_object_name": "IONOSFERA-M 1",
        "meta_object_id": "2024-199A",
        "meta_epoch": "2025-12-10T07:06:04.597056",
        "meta_mean_motion": 14.22713258,
        "meta_eccentricity": 0.00010742,
        "meta_inclination": 98.7412,
        "meta_ra_of_asc_node": 214.1629,
        "meta_arg_of_pericenter": 25.1657,
        "meta_mean_anomaly": 334.9573,
        "meta_ephemeris_type": 0,
        "meta_classification_type": "U",
        "meta_norad_cat_id": 61735,
        "meta_element_set_no": 999,
        "meta_rev_at_epoch": 10084,
        "meta_bstar": 8.0111859e-05,
        "meta_mean_motion_dot": 1.35e-06,
        "meta_mean_motion_ddot": 0,
        "tle_line1": "1 61735U 24199A   25344.29588654  .00000135  00000+0  80112-4 0  9996",
        "tle_line2": "2 61735  98.7412 214.1629 0001074  25.1657 334.9573 14.22713258100840"
      },
      "geometry": {
        "type": "Point",
        "coordinates": [
          26.634345682812537,
          -41.59822050434262
        ]
      }
    },
    {
      "type": "Feature",
      "properties": {
        "norad_id": 61736,
        "name": "IONOSFERA-M 2",
        "group": "resource",
        "lat": 44.00774794901123,
        "lon": -154.14845561072673,
        "alt_km": 812.0022687572136,
        "timestamp": "2025-12-10T14:53:36.780506+00:00",
        "meta_object_name": "IONOSFERA-M 2",
        "meta_object_id": "2024-199B",
        "meta_epoch": "2025-12-10T06:14:41.993664",
        "meta_mean_motion": 14.22715405,
        "meta_eccentricity": 0.00015867,
        "meta_inclination": 98.7403,
        "meta_ra_of_asc_node": 214.04,
        "meta_arg_of_pericenter": 113.8592,
        "meta_mean_anomaly": 246.2753,
        "meta_ephemeris_type": 0,
        "meta_classification_type": "U",
        "meta_norad_cat_id": 61736,
        "meta_element_set_no": 999,
        "meta_rev_at_epoch": 10396,
        "meta_bstar": 7.6021939e-05,
        "meta_mean_motion_dot": 1.26e-06,
        "meta_mean_motion_ddot": 0,
        "tle_line1": "1 61736U 24199B   25344.26020826  .00000126  00000+0  76022-4 0  9991",
        "tle_line2": "2 61736  98.7403 214.0400 0001586 113.8592 246.2753 14.22715405103965"
      },
      "geometry": {
        "type": "Point",
        "coordinates": [
          -154.14845561072673,
          44.00774794901123
        ]
      }
    }
  ]
}